CCSDS_OMM_VERS = 2.0
CREATION_DATE  = 
ORIGINATOR     = 

OBJECT_NAME    = STARLINK-37028
OBJECT_ID      = 2026-055J
CENTER_NAME    = EARTH
REF_FRAME      = TEME
TIME_SYSTEM    = UTC
MEAN_ELEMENT_THEORY = SGP/SGP4

EPOCH          = 2026-04-01T12:00:00.998784
MEAN_MOTION    = 15.86845143
ECCENTRICITY   = .0000947
INCLINATION    = 53.1576
RA_OF_ASC_NODE = 222.9466
ARG_OF_PERICENTER = 73.2507
MEAN_ANOMALY   = 143.7615

EPHEMERIS_TYPE = 0
CLASSIFICATION_TYPE = U
NORAD_CAT_ID   = 68270
ELEMENT_SET_NO = 999
REV_AT_EPOCH   = 330
BSTAR          = -.54983E-2
MEAN_MOTION_DOT = -.1276073E-1
MEAN_MOTION_DDOT = 0

CCSDS_OMM_VERS = 2.0
CREATION_DATE  = 
ORIGINATOR     = 

OBJECT_NAME    = STARLINK-37029
OBJECT_ID      = 2026-055K
CENTER_NAME    = EARTH
REF_FRAME      = TEME
TIME_SYSTEM    = UTC
MEAN_ELEMENT_THEORY = SGP/SGP4

EPOCH          = 2026-04-01T12:00:00.998784
MEAN_MOTION    = 15.86814400
ECCENTRICITY   = .0000928
INCLINATION    = 53.1574
RA_OF_ASC_NODE = 222.9561
ARG_OF_PERICENTER = 74.1860
MEAN_ANOMALY   = 138.4845

EPHEMERIS_TYPE = 0
CLASSIFICATION_TYPE = U
NORAD_CAT_ID   = 68271
ELEMENT_SET_NO = 999
REV_AT_EPOCH   = 330
BSTAR          = -.54907E-2
MEAN_MOTION_DOT = -.1272782E-1
MEAN_MOTION_DDOT = 0

CCSDS_OMM_VERS = 2.0
CREATION_DATE  = 
ORIGINATOR     = 

OBJECT_NAME    = STARLINK-36974
OBJECT_ID      = 2026-055L
CENTER_NAME    = EARTH
REF_FRAME      = TEME
TIME_SYSTEM    = UTC
MEAN_ELEMENT_THEORY = SGP/SGP4

EPOCH          = 2026-04-01T12:00:00.998784
MEAN_MOTION    = 15.86831989
ECCENTRICITY   = .0000971
INCLINATION    = 53.1574
RA_OF_ASC_NODE = 222.9365
ARG_OF_PERICENTER = 77.9579
MEAN_ANOMALY   = 143.9669

EPHEMERIS_TYPE = 0
CLASSIFICATION_TYPE = U
NORAD_CAT_ID   = 68272
ELEMENT_SET_NO = 999
REV_AT_EPOCH   = 330
BSTAR          = -.55721E-2
MEAN_MOTION_DOT = -.1290449E-1
MEAN_MOTION_DDOT = 0

CCSDS_OMM_VERS = 2.0
CREATION_DATE  = 
ORIGINATOR     = 

OBJECT_NAME    = STARLINK-37019
OBJECT_ID      = 2026-055M
CENTER_NAME    = EARTH
REF_FRAME      = TEME
TIME_SYSTEM    = UTC
MEAN_ELEMENT_THEORY = SGP/SGP4

EPOCH          = 2026-04-01T12:00:00.998784
MEAN_MOTION    = 15.86897589
ECCENTRICITY   = .0000872
INCLINATION    = 53.1574
RA_OF_ASC_NODE = 222.9274
ARG_OF_PERICENTER = 73.7931
MEAN_ANOMALY   = 152.1782

EPHEMERIS_TYPE = 0
CLASSIFICATION_TYPE = U
NORAD_CAT_ID   = 68273
ELEMENT_SET_NO = 999
REV_AT_EPOCH   = 330
BSTAR          = -.56156E-2
MEAN_MOTION_DOT = -.1303015E-1
MEAN_MOTION_DDOT = 0

CCSDS_OMM_VERS = 2.0
CREATION_DATE  = 
ORIGINATOR     = 

OBJECT_NAME    = STARLINK-37129
OBJECT_ID      = 2026-055N
CENTER_NAME    = EARTH
REF_FRAME      = TEME
TIME_SYSTEM    = UTC
MEAN_ELEMENT_THEORY = SGP/SGP4

EPOCH          = 2026-04-01T12:00:00.998784
MEAN_MOTION    = 15.86953891
ECCENTRICITY   = .0000822
INCLINATION    = 53.1572
RA_OF_ASC_NODE = 222.9187
ARG_OF_PERICENTER = 76.3881
MEAN_ANOMALY   = 153.9405

EPHEMERIS_TYPE = 0
CLASSIFICATION_TYPE = U
NORAD_CAT_ID   = 68274
ELEMENT_SET_NO = 999
REV_AT_EPOCH   = 330
BSTAR          = -.584E-2
MEAN_MOTION_DOT = -.1351923E-1
MEAN_MOTION_DDOT = 0

CCSDS_OMM_VERS = 2.0
CREATION_DATE  = 
ORIGINATOR     = 

OBJECT_NAME    = STARLINK-37123
OBJECT_ID      = 2026-055P
CENTER_NAME    = EARTH
REF_FRAME      = TEME
TIME_SYSTEM    = UTC
MEAN_ELEMENT_THEORY = SGP/SGP4

EPOCH          = 2026-04-01T12:00:00.998784
MEAN_MOTION    = 15.87037295
ECCENTRICITY   = .0000887
INCLINATION    = 53.1575
RA_OF_ASC_NODE = 222.9106
ARG_OF_PERICENTER = 79.4341
MEAN_ANOMALY   = 154.8681

EPHEMERIS_TYPE = 0
CLASSIFICATION_TYPE = U
NORAD_CAT_ID   = 68275
ELEMENT_SET_NO = 999
REV_AT_EPOCH   = 330
BSTAR          = -.60139E-2
MEAN_MOTION_DOT = -.1392087E-1
MEAN_MOTION_DDOT = 0

CCSDS_OMM_VERS = 2.0
CREATION_DATE  = 
ORIGINATOR     = 

OBJECT_NAME    = STARLINK-37125
OBJECT_ID      = 2026-055Q
CENTER_NAME    = EARTH
REF_FRAME      = TEME
TIME_SYSTEM    = UTC
MEAN_ELEMENT_THEORY = SGP/SGP4

EPOCH          = 2026-04-01T12:00:00.998784
MEAN_MOTION    = 15.87033852
ECCENTRICITY   = .0000868
INCLINATION    = 53.1572
RA_OF_ASC_NODE = 222.9005
ARG_OF_PERICENTER = 72.9619
MEAN_ANOMALY   = 166.1761

EPHEMERIS_TYPE = 0
CLASSIFICATION_TYPE = U
NORAD_CAT_ID   = 68276
ELEMENT_SET_NO = 999
REV_AT_EPOCH   = 330
BSTAR          = -.63757E-2
MEAN_MOTION_DOT = -.1464166E-1
MEAN_MOTION_DDOT = 0

CCSDS_OMM_VERS = 2.0
CREATION_DATE  = 
ORIGINATOR     = 

OBJECT_NAME    = STARLINK-36989
OBJECT_ID      = 2026-055R
CENTER_NAME    = EARTH
REF_FRAME      = TEME
TIME_SYSTEM    = UTC
MEAN_ELEMENT_THEORY = SGP/SGP4

EPOCH          = 2026-04-01T12:00:00.998784
MEAN_MOTION    = 15.87028746
ECCENTRICITY   = .0000887
INCLINATION    = 53.1572
RA_OF_ASC_NODE = 222.8731
ARG_OF_PERICENTER = 80.0850
MEAN_ANOMALY   = 172.3266

EPHEMERIS_TYPE = 0
CLASSIFICATION_TYPE = U
NORAD_CAT_ID   = 68277
ELEMENT_SET_NO = 999
REV_AT_EPOCH   = 330
BSTAR          = -.64929E-2
MEAN_MOTION_DOT = -.1518389E-1
MEAN_MOTION_DDOT = 0

CCSDS_OMM_VERS = 2.0
CREATION_DATE  = 
ORIGINATOR     = 

OBJECT_NAME    = STARLINK-36982
OBJECT_ID      = 2026-055S
CENTER_NAME    = EARTH
REF_FRAME      = TEME
TIME_SYSTEM    = UTC
MEAN_ELEMENT_THEORY = SGP/SGP4

EPOCH          = 2026-04-01T12:00:00.998784
MEAN_MOTION    = 15.87007449
ECCENTRICITY   = .0000869
INCLINATION    = 53.1572
RA_OF_ASC_NODE = 222.8826
ARG_OF_PERICENTER = 79.3051
MEAN_ANOMALY   = 168.8563

EPHEMERIS_TYPE = 0
CLASSIFICATION_TYPE = U
NORAD_CAT_ID   = 68278
ELEMENT_SET_NO = 999
REV_AT_EPOCH   = 330
BSTAR          = -.64558E-2
MEAN_MOTION_DOT = -.1509303E-1
MEAN_MOTION_DDOT = 0

CCSDS_OMM_VERS = 2.0
CREATION_DATE  = 
ORIGINATOR     = 

OBJECT_NAME    = STARLINK-36934
OBJECT_ID      = 2026-055T
CENTER_NAME    = EARTH
REF_FRAME      = TEME
TIME_SYSTEM    = UTC
MEAN_ELEMENT_THEORY = SGP/SGP4

EPOCH          = 2026-04-01T12:00:00.998784
MEAN_MOTION    = 15.87002808
ECCENTRICITY   = .0001093
INCLINATION    = 53.1571
RA_OF_ASC_NODE = 222.8912
ARG_OF_PERICENTER = 87.6462
MEAN_ANOMALY   = 156.2323

EPHEMERIS_TYPE = 0
CLASSIFICATION_TYPE = U
NORAD_CAT_ID   = 68279
ELEMENT_SET_NO = 999
REV_AT_EPOCH   = 330
BSTAR          = -.64988E-2
MEAN_MOTION_DOT = -.151803E-1
MEAN_MOTION_DDOT = 0

CCSDS_OMM_VERS = 2.0
CREATION_DATE  = 
ORIGINATOR     = 

OBJECT_NAME    = STARLINK-37070
OBJECT_ID      = 2026-055U
CENTER_NAME    = EARTH
REF_FRAME      = TEME
TIME_SYSTEM    = UTC
MEAN_ELEMENT_THEORY = SGP/SGP4

EPOCH          = 2026-04-01T12:00:00.998784
MEAN_MOTION    = 15.86989697
ECCENTRICITY   = .0000843
INCLINATION    = 53.1575
RA_OF_ASC_NODE = 222.8633
ARG_OF_PERICENTER = 75.3707
MEAN_ANOMALY   = 181.7626

EPHEMERIS_TYPE = 0
CLASSIFICATION_TYPE = U
NORAD_CAT_ID   = 68280
ELEMENT_SET_NO = 999
REV_AT_EPOCH   = 330
BSTAR          = -.65648E-2
MEAN_MOTION_DOT = -.1530544E-1
MEAN_MOTION_DDOT = 0

CCSDS_OMM_VERS = 2.0
CREATION_DATE  = 
ORIGINATOR     = 

OBJECT_NAME    = STARLINK-37134
OBJECT_ID      = 2026-055V
CENTER_NAME    = EARTH
REF_FRAME      = TEME
TIME_SYSTEM    = UTC
MEAN_ELEMENT_THEORY = SGP/SGP4

EPOCH          = 2026-04-01T12:00:00.998784
MEAN_MOTION    = 15.86987244
ECCENTRICITY   = .000081
INCLINATION    = 53.1569
RA_OF_ASC_NODE = 222.8446
ARG_OF_PERICENTER = 76.0759
MEAN_ANOMALY   = 189.9511

EPHEMERIS_TYPE = 0
CLASSIFICATION_TYPE = U
NORAD_CAT_ID   = 68281
ELEMENT_SET_NO = 999
REV_AT_EPOCH   = 330
BSTAR          = -.66675E-2
MEAN_MOTION_DOT = -.155142E-1
MEAN_MOTION_DDOT = 0

