STARLINK-37028          
1 68270U 26055J   26091.50001156 -.01276073  00000+0 -54983-2 0  9995
2 68270  53.1576 222.9466 0000947  73.2507 143.7615 15.86845143  3305
STARLINK-37029          
1 68271U 26055K   26091.50001156 -.01272782  00000+0 -54907-2 0  9995
2 68271  53.1574 222.9561 0000928  74.1860 138.4845 15.86814400  3309
STARLINK-36974          
1 68272U 26055L   26091.50001156 -.01290449  00000+0 -55721-2 0  9991
2 68272  53.1574 222.9365 0000971  77.9579 143.9669 15.86831989  3304
STARLINK-37019          
1 68273U 26055M   26091.50001156 -.01303015  00000+0 -56156-2 0  9999
2 68273  53.1574 222.9274 0000872  73.7931 152.1782 15.86897589  3306
STARLINK-37129          
1 68274U 26055N   26091.50001156 -.01351923  00000+0 -58400-2 0  9995
2 68274  53.1572 222.9187 0000822  76.3881 153.9405 15.86953891  3306
STARLINK-37123          
1 68275U 26055P   26091.50001156 -.01392087  00000+0 -60139-2 0  9994
2 68275  53.1575 222.9106 0000887  79.4341 154.8681 15.87037295  3305
STARLINK-37125          
1 68276U 26055Q   26091.50001156 -.01464166  00000+0 -63757-2 0  9992
2 68276  53.1572 222.9005 0000868  72.9619 166.1761 15.87033852  3306
STARLINK-36989          
1 68277U 26055R   26091.50001156 -.01518389  00000+0 -64929-2 0  9992
2 68277  53.1572 222.8731 0000887  80.0850 172.3266 15.87028746  3305
STARLINK-36982          
1 68278U 26055S   26091.50001156 -.01509303  00000+0 -64558-2 0  9997
2 68278  53.1572 222.8826 0000869  79.3051 168.8563 15.87007449  3302
STARLINK-36934          
1 68279U 26055T   26091.50001156 -.01518030  00000+0 -64988-2 0  9992
2 68279  53.1571 222.8912 0001093  87.6462 156.2323 15.87002808  3305
STARLINK-37070          
1 68280U 26055U   26091.50001156 -.01530544  00000+0 -65648-2 0  9992
2 68280  53.1575 222.8633 0000843  75.3707 181.7626 15.86989697  3307
STARLINK-37134          
1 68281U 26055V   26091.50001156 -.01551420  00000+0 -66675-2 0  9990
2 68281  53.1569 222.8446 0000810  76.0759 189.9511 15.86987244  3301
